#aV2010  2 20  0  0   .00000000      96 DD+AD WGS84 FIT  NGA
## 1571 518400.00000000   900.00000000 55247  .0000000000000
+   32     1  2  3  4  5  6  7  8  9 10 11 12 13 14 15 16 17
+         18 19 20 21 22 23 24 25 26 27 28 29 30 31 32  0  0
+          0  0  0  0  0  0  0  0  0  0  0  0  0  0  0  0  0
+          0  0  0  0  0  0  0  0  0  0  0  0  0  0  0  0  0
+          0  0  0  0  0  0  0  0  0  0  0  0  0  0  0  0  0
++         0  0  0  0  0  0  0  0  0  0  0  0  0  0  0  0  0
++         0  0  0  0  0  0  0  0  0  0  0  0  0  0  0  0  0
++         0  0  0  0  0  0  0  0  0  0  0  0  0  0  0  0  0
++         0  0  0  0  0  0  0  0  0  0  0  0  0  0  0  0  0
++         0  0  0  0  0  0  0  0  0  0  0  0  0  0  0  0  0
%c cc cc ccc ccc cccc cccc cccc cccc ccccc ccccc ccccc ccccc
%c cc cc ccc ccc cccc cccc cccc cccc ccccc ccccc ccccc ccccc
%f  0.0000000  0.000000000  0.00000000000  0.000000000000000
%f  0.0000000  0.000000000  0.00000000000  0.000000000000000
%i    0    0    0    0      0      0      0      0         0
%i    0    0    0    0      0      0      0      0         0
/*      NGA, ST. LOUIS,MO.                                  
/*   EPHEMERIS COMPUTED FROM  3 DAYS OF DATA                
/* CCCCCCCCCCCCCCCCCCCCCCCCCCCCCCCCCCCCCCCCCCCCCCCCCCCCCCCCC
/* CCCCCCCCCCCCCCCCCCCCCCCCCCCCCCCCCCCCCCCCCCCCCCCCCCCCCCCCC
*  2010  2 20  3 45   .00000000                                                 
P  1  18243.648408  13287.754769  14020.936848    -90.760348                    
V  1   6725.061830  16727.468112 -24282.214927      -.038959                    
P  2 -11229.165189  13965.966277  19411.360481    228.547831                    
V  2 -24936.219600  -2159.737479 -13278.297601       .040159                    
P  3   8959.253677 -24646.454308  -3141.100349    518.181463                    
V  3   5257.798299  -1541.344593  30873.306122       .051715                    
P  4 -23739.239630   6601.108950  10206.192266     19.200949                    
V  4 -13011.176673  -3318.509640 -27297.106439       .090122                    
P  5  -1444.592899  21071.686442  16030.669149     -7.230572                    
V  5 -11425.546819 -17057.622122  21447.013320       .022153                    
P  6  13214.566298 -22960.991515    496.190692    246.943179                    
V  6   3067.513806   2193.338946  31234.975208      -.055984                    
P  7 -24002.289406  -7101.260837   9109.050236      2.625150                    
V  7  11587.255433  -1751.408321  28990.060450      -.005366                    
P  8 -26636.822436   -527.452794  -3337.944261      3.470173                    
V  8  -3980.066335  -1782.511662  31714.314603       .005087                    
P  9   6986.151883  14614.856742 -21719.484754    107.103569                    
V  9 -25978.373803    362.928547  -8332.429795       .022862                    
P 10  -7433.971842  16026.025578  19541.324100    -35.948065                    
V 10 -12725.934841 -21963.982764  13393.924958      -.009501                    
P 11 -12651.913423 -13543.034766 -19381.764987    -46.340552                    
V 11  23531.211268  -6277.693960 -10752.900069      -.021588                    
P 12  11594.763128  23952.120601  -1173.768408   -147.916639                    
V 12  -2862.973835   -255.881946 -31808.074064       .047179                    
P 13 -12749.452230  -6924.739876  22115.462789    306.398367                    
V 13  16434.503255 -23053.801061   2229.788163      -.001487                    
P 14  19167.773069 -10750.287910 -14691.347111     13.746650                    
V 14  -9389.668040  16472.558305 -24195.058866       .042357                    
P 15  -4599.361447  23430.567140 -11493.038463   -305.070067                    
V 15  -9828.140638  11217.944885  26860.069586       .031592                    
P 16   7126.103074 -16104.075563  19848.975497    -43.287574                    
V 16  12309.738275  21962.617278  13689.564181      -.040175                    
P 17 -19222.635297  11679.582826 -13864.984436    131.204668                    
V 17   7798.474290 -16221.699195 -24523.665897       .028937                    
P 18  18233.463345  13083.058048 -14231.169569     50.117627                    
V 18   6064.656522  17565.532589  23124.601841       .025820                    
P 19   5049.073843 -22382.679588 -13086.410788    -16.756000                    
V 19  11994.217009 -12026.480164  25414.766253      -.023713                    
P 20 -14312.396989 -22323.355645   1849.262835     60.955926                    
V 20   1776.183989  -3910.784768 -31089.736616      -.007611                    
P 21  26038.499748   4911.685657   4932.915915    -41.772041                    
V 21  -5940.122568   2746.631913  29901.184392      -.025003                    
P 22  16758.714661   -117.884523 -20461.890050    178.656676                    
V 22  10844.934244  24109.615907   8596.786903      -.011501                    
P 23  -5884.029364 -16340.159054  19978.529996    379.439707                    
V 23  14663.684555 -20890.352034 -13045.258877      -.010396                    
P 24  21799.640285   9961.319530  11285.916291    263.949934                    
V 24 -14488.987499   1646.064550  26987.088139       .032820                    
P 25  14028.737394  22592.659963  -1229.200297     16.521494                    
V 25  -3229.636753    749.977809 -31384.740516       .757813                    
P 26  16406.692433   1195.314735 -21470.947656    -20.308044                    
V 26 -14822.277936  21203.140351  -9968.612232      -.037631                    
P 27   4449.918107  14265.043188 -21280.923550    127.691734                    
V 27 -28605.247125    975.384104  -5052.551178       .031708                    
P 28 -16853.575804  -3397.129027 -19859.981748    -21.808672                    
V 28 -10645.257075 -23908.229140  12532.352080       .006893                    
P 29  11603.612787  10035.936413  21776.706149     99.379290                    
V 29 -15350.593210  22729.984998  -2270.581133       .029388                    
P 30  17263.100928  18540.172451   7689.952655    221.150296                    
V 30   2770.710130  10301.830817 -29514.719566       .033679                    
P 31  22033.761810  -7957.852937  12890.659579    -50.722294                    
V 31  15859.274547   2281.559610 -25975.589765       .015883                    
P 32  -6476.388706 -25228.858952  -5651.529134     91.146701                    
V 32   5303.794959   5963.107439 -30447.665887      -.084187                    
EOF
